SBSS (USA 216)          
1 37168U 10048A   26068.88624904  .00004946  00000+0  24191-3 0  9993
2 37168  97.7474 312.3885 0082264 184.8326 306.5835 15.15724210837421
STARLINK-31794          
1 59803U 24093X   26068.43870614 -.00013177  00000+0 -46973-3 0  9990
2 59803  43.0046 210.6044 0001704 290.9805  69.0864 15.27609693102729
